OBJECT_NAME,OBJECT_ID,EPOCH,MEAN_MOTION,ECCENTRICITY,INCLINATION,RA_OF_ASC_NODE,ARG_OF_PERICENTER,MEAN_ANOMALY,EPHEMERIS_TYPE,CLASSIFICATION_TYPE,NORAD_CAT_ID,ELEMENT_SET_NO,REV_AT_EPOCH,BSTAR,MEAN_MOTION_DOT,MEAN_MOTION_DDOT
INTELSAT 23 (IS-23),2012-057A,2026-06-25T03:47:31.253568,1.00272002,.0000095,0.0151,9.7735,155.3887,112.0078,0,U,38867,999,5003,0,-.275E-5,0
FM-6,2013-058A,2026-06-25T03:29:32.488224,1.00271074,.0001675,0.0153,53.0092,127.8550,28.5097,0,U,39360,999,4615,0,-.6E-7,0
INTELSAT 30 (IS-30),2014-062A,2026-06-25T03:35:31.913088,1.00270562,.0001487,0.0274,54.2798,340.3838,197.4546,0,U,40271,999,687,0,-.141E-5,0
DIRECTV 14,2014-078B,2026-06-24T04:22:38.578944,1.00271057,.00002177,0.0117,28.0808,350.4059,220.2724,0,U,40333,999,4211,0,-.118E-5,0
DIRECTV 15,2015-026A,2026-06-25T03:33:17.129088,1.00270309,.0000544,0.0168,58.8380,339.4605,185.4343,0,U,40663,999,4054,0,-.93E-6,0
SKY MEXICO-1,2015-026B,2026-06-25T03:40:08.970240,1.00271161,.0002517,0.0187,338.1849,132.4438,138.9017,0,U,40664,999,4053,0,-.225E-5,0
INTELSAT 34 (IS-34),2015-039A,2026-06-25T03:46:53.812128,1.00270198,.0000478,0.0096,8.4114,12.0602,254.0522,0,U,40874,999,3971,0,-.276E-5,0
INTELSAT 31 (IS-31),2016-035A,2026-06-25T03:35:31.913088,1.00270780,.0000679,0.0127,292.2322,327.6488,332.2376,0,U,41581,999,3676,0,-.141E-5,0
INTELSAT 36 (IS-36),2016-053A,2026-06-25T04:22:12.925920,1.00272521,.0002042,0.0128,20.9268,321.7510,64.7168,0,U,41747,999,3603,0,-.15E-6,0
INTELSAT 32E (IS-32E),2017-007B,2026-06-25T03:50:23.478144,1.00267463,.0000328,0.0263,12.3082,342.9005,292.5044,0,U,41945,999,3430,0,0,0
INTELSAT 35E (IS-35E),2017-041A,2026-06-25T04:09:13.489920,1.00269597,.0002379,0.0243,8.0577,86.9446,206.1333,0,U,42818,999,3289,0,0,0
INTELSAT 37E (IS-37E),2017-059A,2026-06-25T03:57:30.295008,1.00268807,.0003092,0.0260,15.0600,104.1814,195.4311,0,U,42950,999,3214,0,0,0
AZERSPACE 2 (IS-38),2018-074A,2026-06-25T04:15:28.573056,1.00272596,.0001587,0.0035,82.5969,10.3273,289.3716,0,U,43632,999,2852,0,.146E-5,0
HORIZONS-3E,2018-074B,2026-06-24T03:11:02.118624,1.00270268,.00005468,0.0084,244.9552,64.2971,179.8035,0,U,43633,999,2841,0,-.24E-6,0
AT&T T-16,2019-034A,2026-06-24T05:12:18.359424,1.00269597,.00004288,0.0234,69.8864,237.8872,301.8051,0,U,44333,999,2570,0,-.108E-5,0
INTELSAT 39 (IS-39),2019-049B,2026-06-24T23:12:21.621024,1.00271609,.0000944,0.0066,29.2524,320.4307,333.4657,0,U,44476,999,2520,0,.43E-6,0
GALAXY 30 (G-30),2020-056C,2026-06-24T05:43:05.439360,1.00270568,.00022033,0.0116,48.6374,40.4727,144.0438,0,U,46114,999,2136,0,.44E-6,0
GALAXY 33 (G-33),2022-128A,2026-06-25T03:24:43.404192,1.00270822,.0002018,0.0142,350.9869,98.4402,102.0406,0,U,54026,999,1382,0,.89E-6,0
GALAXY 34 (G-34),2022-128B,2026-06-23T07:41:18.543264,1.00267852,.00017934,0.0203,0.4191,105.3742,152.0255,0,U,54027,999,1397,0,0,0
GALAXY 31 (G-31),2022-153A,2026-06-25T02:59:38.794848,1.00272384,.0001511,0.0172,2.5644,93.8237,100.7977,0,U,54243,999,721,0,0,0
GALAXY 32 (G-32),2022-153B,2026-06-24T05:22:05.316096,1.00271380,.0002133,0.0097,2.1596,41.7877,217.9513,0,U,54244,999,1321,0,-.167E-5,0
GALAXY 35 (G-35),2022-170A,2026-06-25T03:36:09.351936,1.00271509,.0002121,0.0146,309.3921,142.0946,142.7336,0,U,54741,999,1297,0,-.153E-5,0
GALAXY 36 (G-36),2022-170B,2026-06-25T03:37:16.744800,1.00271784,.0002829,0.0343,132.5365,314.9705,151.1100,0,U,54742,999,1285,0,-.176E-5,0
GALAXY 37 (G-37),2023-112A,2026-06-24T22:53:38.774400,1.00273244,.0002245,0.0160,31.7708,61.6422,36.1021,0,U,57493,999,1062,0,.57E-6,0
